{
  "type": "FeatureCollection",
  "features": [
    {
      "type": "Feature",
      "properties": {
        "norad_id": 39227,
        "name": "ARIRANG-5 (KOMPSAT-5)",
        "group": "resource",
        "lat": 38.15976165031465,
        "lon": 174.00023292145406,
        "alt_km": 547.783543155223,
        "timestamp": "2025-12-21T20:41:07.642718+00:00",
        "meta_object_name": "ARIRANG-5 (KOMPSAT-5)",
        "meta_object_id": "2013-042A",
        "meta_epoch": "2025-12-21T14:07:48.213408",
        "meta_mean_motion": 15.04542254,
        "meta_eccentricity": 0.00034059,
        "meta_inclination": 97.6155,
        "meta_ra_of_asc_node": 179.766,
        "meta_arg_of_pericenter": 35.6029,
        "meta_mean_anomaly": 324.5424,
        "meta_ephemeris_type": 0,
        "meta_classification_type": "U",
        "meta_norad_cat_id": 39227,
        "meta_element_set_no": 999,
        "meta_rev_at_epoch": 67715,
        "meta_bstar": 0.00012382711,
        "meta_mean_motion_dot": 1.675e-05,
        "meta_mean_motion_ddot": 0,
        "tle_line1": "1 39227U 13042A   25355.58875247  .00001675  00000+0  12383-3 0  9997",
        "tle_line2": "2 39227  97.6155 179.7660 0003405  35.6029 324.5424 15.04542254677153"
      },
      "geometry": {
        "type": "Point",
        "coordinates": [
          174.00023292145406,
          38.15976165031465
        ]
      }
    },
    {
      "type": "Feature",
      "properties": {
        "norad_id": 39418,
        "name": "SKYSAT-A",
        "group": "resource",
        "lat": -73.35517034037551,
        "lon": 71.59617148384395,
        "alt_km": 536.2150383140806,
        "timestamp": "2025-12-21T20:41:07.642728+00:00",
        "meta_object_name": "SKYSAT-A",
        "meta_object_id": "2013-066C",
        "meta_epoch": "2025-12-21T14:39:46.934496",
        "meta_mean_motion": 15.11663655,
        "meta_eccentricity": 0.00213506,
        "meta_inclination": 97.4093,
        "meta_ra_of_asc_node": 45.55,
        "meta_arg_of_pericenter": 204.4384,
        "meta_mean_anomaly": 155.5836,
        "meta_ephemeris_type": 0,
        "meta_classification_type": "U",
        "meta_norad_cat_id": 39418,
        "meta_element_set_no": 999,
        "meta_rev_at_epoch": 66164,
        "meta_bstar": 0.000176122,
        "meta_mean_motion_dot": 2.947e-05,
        "meta_mean_motion_ddot": 0,
        "tle_line1": "1 39418U 13066C   25355.61095989  .00002947  00000+0  17612-3 0  9999",
        "tle_line2": "2 39418  97.4093  45.5500 0021350 204.4384 155.5836 15.11663655661649"
      },
      "geometry": {
        "type": "Point",
        "coordinates": [
          71.59617148384395,
          -73.35517034037551
        ]
      }
    },
    {
      "type": "Feature",
      "properties": {
        "norad_id": 39419,
        "name": "DUBAISAT-2",
        "group": "resource",
        "lat": -38.906490266020214,
        "lon": -7.954401748710852,
        "alt_km": 541.7786478126918,
        "timestamp": "2025-12-21T20:41:07.642737+00:00",
        "meta_object_name": "DUBAISAT-2",
        "meta_object_id": "2013-066D",
        "meta_epoch": "2025-12-21T14:29:27.250368",
        "meta_mean_motion": 15.08429586,
        "meta_eccentricity": 0.00100481,
        "meta_inclination": 97.4439,
        "meta_ra_of_asc_node": 345.7381,
        "meta_arg_of_pericenter": 287.2094,
        "meta_mean_anomaly": 72.8035,
        "meta_ephemeris_type": 0,
        "meta_classification_type": "U",
        "meta_norad_cat_id": 39419,
        "meta_element_set_no": 999,
        "meta_rev_at_epoch": 65960,
        "meta_bstar": 0.00020948531,
        "meta_mean_motion_dot": 3.202e-05,
        "meta_mean_motion_ddot": 0,
        "tle_line1": "1 39419U 13066D   25355.60378762  .00003202  00000+0  20949-3 0  9994",
        "tle_line2": "2 39419  97.4439 345.7381 0010048 287.2094  72.8035 15.08429586659609"
      },
      "geometry": {
        "type": "Point",
        "coordinates": [
          -7.954401748710852,
          -38.906490266020214
        ]
      }
    },
    {
      "type": "Feature",
      "properties": {
        "norad_id": 39574,
        "name": "GPM-CORE",
        "group": "resource",
        "lat": -44.419233301403544,
        "lon": 29.383183721302437,
        "alt_km": 432.2814474062134,
        "timestamp": "2025-12-21T20:41:07.642746+00:00",
        "meta_object_name": "GPM-CORE",
        "meta_object_id": "2014-009C",
        "meta_epoch": "2025-12-21T13:28:28.945632",
        "meta_mean_motion": 15.44589692,
        "meta_eccentricity": 0.00092978,
        "meta_inclination": 64.9718,
        "meta_ra_of_asc_node": 183.1397,
        "meta_arg_of_pericenter": 248.7595,
        "meta_mean_anomaly": 111.2553,
        "meta_ephemeris_type": 0,
        "meta_classification_type": "U",
        "meta_norad_cat_id": 39574,
        "meta_element_set_no": 999,
        "meta_rev_at_epoch": 67037,
        "meta_bstar": 0.00014025798,
        "meta_mean_motion_dot": 6.314e-05,
        "meta_mean_motion_ddot": 0,
        "tle_line1": "1 39574U 14009C   25355.56144613  .00006314  00000+0  14026-3 0  9991",
        "tle_line2": "2 39574  64.9718 183.1397 0009297 248.7595 111.2553 15.44589692670378"
      },
      "geometry": {
        "type": "Point",
        "coordinates": [
          29.383183721302437,
          -44.419233301403544
        ]
      }
    },
    {
      "type": "Feature",
      "properties": {
        "norad_id": 39634,
        "name": "SENTINEL-1A",
        "group": "resource",
        "lat": 44.001715437559405,
        "lon": -171.04737583202535,
        "alt_km": 691.4852350798183,
        "timestamp": "2025-12-21T20:41:07.642755+00:00",
        "meta_object_name": "SENTINEL-1A",
        "meta_object_id": "2014-016A",
        "meta_epoch": "2025-12-21T15:07:48.928224",
        "meta_mean_motion": 14.592006,
        "meta_eccentricity": 0.00012668,
        "meta_inclination": 98.1794,
        "meta_ra_of_asc_node": 0.7402,
        "meta_arg_of_pericenter": 84.6815,
        "meta_mean_anomaly": 275.4529,
        "meta_ephemeris_type": 0,
        "meta_classification_type": "U",
        "meta_norad_cat_id": 39634,
        "meta_element_set_no": 999,
        "meta_rev_at_epoch": 62412,
        "meta_bstar": -6.45568e-07,
        "meta_mean_motion_dot": -4.9e-07,
        "meta_mean_motion_ddot": 0,
        "tle_line1": "1 39634U 14016A   25355.63042741 -.00000049  00000+0 -64557-6 0  9991",
        "tle_line2": "2 39634  98.1794   0.7402 0001266  84.6815 275.4529 14.59200600624121"
      },
      "geometry": {
        "type": "Point",
        "coordinates": [
          -171.04737583202535,
          44.001715437559405
        ]
      }
    },
    {
      "type": "Feature",
      "properties": {
        "norad_id": 39731,
        "name": "KAZEOSAT 1",
        "group": "resource",
        "lat": -81.42470716852118,
        "lon": 170.87170749948825,
        "alt_km": 759.8635481482397,
        "timestamp": "2025-12-21T20:41:07.642764+00:00",
        "meta_object_name": "KAZEOSAT 1",
        "meta_object_id": "2014-024A",
        "meta_epoch": "2025-12-21T12:47:07.027008",
        "meta_mean_motion": 14.4206771,
        "meta_eccentricity": 0.00012005,
        "meta_inclination": 98.343,
        "meta_ra_of_asc_node": 67.2432,
        "meta_arg_of_pericenter": 97.1056,
        "meta_mean_anomaly": 263.0271,
        "meta_ephemeris_type": 0,
        "meta_classification_type": "U",
        "meta_norad_cat_id": 39731,
        "meta_element_set_no": 999,
        "meta_rev_at_epoch": 61295,
        "meta_bstar": 0.00012400068,
        "meta_mean_motion_dot": 3.64e-06,
        "meta_mean_motion_ddot": 0,
        "tle_line1": "1 39731U 14024A   25355.53272022  .00000364  00000+0  12400-3 0  9999",
        "tle_line2": "2 39731  98.3430  67.2432 0001200  97.1056 263.0271 14.42067710612953"
      },
      "geometry": {
        "type": "Point",
        "coordinates": [
          170.87170749948825,
          -81.42470716852118
        ]
      }
    },
    {
      "type": "Feature",
      "properties": {
        "norad_id": 39766,
        "name": "ALOS-2",
        "group": "resource",
        "lat": -60.639494968029304,
        "lon": 104.91176581669517,
        "alt_km": 639.0524041992185,
        "timestamp": "2025-12-21T20:41:07.642773+00:00",
        "meta_object_name": "ALOS-2",
        "meta_object_id": "2014-029A",
        "meta_epoch": "2025-12-21T14:28:15.356928",
        "meta_mean_motion": 14.79472363,
        "meta_eccentricity": 0.00013911,
        "meta_inclination": 97.9232,
        "meta_ra_of_asc_node": 90.3234,
        "meta_arg_of_pericenter": 97.2593,
        "meta_mean_anomaly": 262.8777,
        "meta_ephemeris_type": 0,
        "meta_classification_type": "U",
        "meta_norad_cat_id": 39766,
        "meta_element_set_no": 999,
        "meta_rev_at_epoch": 62532,
        "meta_bstar": 0.00020772925,
        "meta_mean_motion_dot": 1.5e-05,
        "meta_mean_motion_ddot": 0,
        "tle_line1": "1 39766U 14029A   25355.60295552  .00001500  00000+0  20773-3 0  9998",
        "tle_line2": "2 39766  97.9232  90.3234 0001391  97.2593 262.8777 14.79472363625328"
      },
      "geometry": {
        "type": "Point",
        "coordinates": [
          104.91176581669517,
          -60.639494968029304
        ]
      }
    }
  ]
}